KUZGTU 1 (RS47S)        
1 57217U 23091AV  26161.29680450  .00011474  00000+0  40034-3 0  9997
2 57217  97.5070 225.7071 0012363 119.1834 241.0644 15.29703195163326
SONATE-2                
1 59112U 24043Q   26161.20385325  .00039531  00000+0  52311-3 0  9990
2 59112  97.5521 311.1751 0006706 219.2622 140.8148 15.58196614126800
MESAT1                  
1 60209U 24125G   26160.55067271  .00047271  00000+0  53241-3 0  9997
2 60209  97.2317  17.8634 0008827 233.2238 126.8211 15.62376813108377
OOV-CUBE (TUBSAT-30)    
1 60240U 24128F   26160.60303325  .00002162  00000+0  17320-3 0  9992
2 60240  61.9950 252.0179 0045573 132.0593 228.4390 15.02742005104972
COLIBRI-S (RS67S)       
1 61746U 24199M   26161.27260879  .00020361  00000+0  39827-3 0  9999
2 61746  97.3009  35.0653 0006403 312.1246  47.9460 15.47438509136341
HORS 3 (RS81S)          
1 61753U 24199U   26161.26713277  .00034961  00000+0  53101-3 0  9993
2 61753  97.2992  36.9725 0004057 320.0931  40.0025 15.54495064136484
HORS 4 (RS82S)          
1 61754U 24199V   26161.24824260  .00046417  00000+0  59490-3 0  9993
2 61754  97.2941  38.1106 0003107 306.6291  53.4679 15.59034953136563
ARCTICSAT 1 (RS74S)     
1 61762U 24199AD  26160.52862703  .00981020  57856-3  10026-2 0  9990
2 61762  97.2858  44.2155 0008367 205.6667 154.4203 16.10882981136890
SIT-2086                
1 61764U 24199AF  26161.30141952  .00034132  00000+0  55495-3 0  9993
2 61764  97.2950  37.5080 0004390 290.0530  70.0251 15.52610624133369
HYPERVIEW 1G (RS66S)    
1 61772U 24199AP  26160.50125704  .00071217  00000+0  50272-3 0  9993
2 61772  97.2889  39.8433 0002236 269.4785  90.6223 15.73836516133466
ALTAIR (RS65S)          
1 61779U 24199AW  26161.27591957  .00010791  00000+0  30067-3 0  9992
2 61779  97.3046  30.6730 0011800 338.8628  21.2128 15.36893506136055
ASRTU-1 (AO-123)        
1 61781U 24199AY  26161.25780945  .00007178  00000+0  20935-3 0  9998
2 61781  97.3016  29.9914 0013007 341.2305  18.8458 15.35576143132868
SAMSAT-IONOSPHERE (RS7*)
1 61784U 24199BB  26161.24839608  .00042564  00000+0  58815-3 0  9997
2 61784  97.2963  36.9753 0006178 313.2233  46.8506 15.57021542136489
RTU MIREA 1 (RS51S)     
1 61785U 24199BC  26161.28788247  .00051320  00000+0  62528-3 0  9990
2 61785  97.2951  37.8127 0005629 305.6839  54.3894 15.60338499133396
TEVEL2-4                
1 63213U 25052D   26160.68297184  .00017103  00000+0  51594-3 0  9997
2 63213  97.3918  57.0647 0004528 116.3023 243.8685 15.34347478 68969
TEVEL2-5                
1 63214U 25052E   26160.96353139  .00017677  00000+0  53583-3 0  9998
2 63214  97.3912  57.2938 0004487 118.3870 241.7826 15.34187821 69009
TEVEL2-6                
1 63215U 25052F   26160.64956858  .00017293  00000+0  52508-3 0  9991
2 63215  97.3916  56.9640 0004468 119.1540 241.0151 15.34139307 68955
TEVEL2-1                
1 63217U 25052H   26160.67600078  .00016290  00000+0  50303-3 0  9993
2 63217  97.3891  56.6234 0004296 127.2307 232.9328 15.33616916 68944
TEVEL2-3                
1 63218U 25052J   26160.27943529  .00016163  00000+0  49846-3 0  9990
2 63218  97.3888  56.2474 0004411 129.8518 230.3113 15.33659205 68889
TEVEL2-2                
1 63219U 25052K   26160.67635539  .00016199  00000+0  50009-3 0  9996
2 63219  97.3888  56.6264 0004307 129.1592 231.0034 15.33624992 68942
TEVEL2-9                
1 63237U 25052AD  26160.64412435  .00015092  00000+0  49533-3 0  9992
2 63237  97.3951  55.9854 0007074 151.9311 208.2313 15.31666357 68873
TEVEL2-7                
1 63238U 25052AE  26160.94496833  .00015122  00000+0  50062-3 0  9993
2 63238  97.3953  56.2048 0007199 151.6459 208.5176 15.31386774 68910
TEVEL2-8                
1 63239U 25052AF  26160.69177181  .00014112  00000+0  46777-3 0  9994
2 63239  97.3952  55.9294 0007169 153.0566 207.1049 15.31361975 68876
INNOSAT 16 (RS92S7)     
1 64878U 25155C   26161.24546651  .00005260  00000+0  21104-3 0  9993
2 64878  97.4555 128.3957 0009706 200.3369 159.7484 15.25383494 79615
GEOSCAN 6 (RS92S6)      
1 64879U 25155D   26161.24940222  .00009590  00000+0  33233-3 0  9992
2 64879  97.4548 129.7750 0007416 185.8211 174.2945 15.30021941 79709
GEOSCAN 1 (RS92S1)      
1 64880U 25155E   26161.25452480  .00010076  00000+0  34279-3 0  9991
2 64880  97.4545 129.9221 0007356 185.4226 174.6936 15.30606205 79715
239ALFEROV (RS61S)      
1 64881U 25155F   26161.29926176  .00013187  00000+0  41880-3 0  9996
2 64881  97.4545 130.5054 0007048 181.6160 178.5061 15.32755886 79759
GEOSCAN 2 (RS92S2)      
1 64890U 25155Q   26161.24943635  .00010154  00000+0  34257-3 0  9991
2 64890  97.4544 130.0666 0007199 171.1518 188.9852 15.30878303 79728
GEOSCAN 5 (RS92S5)      
1 64891U 25155R   26161.28971509  .00013270  00000+0  41736-3 0  9999
2 64891  97.4537 130.6307 0005727 184.8064 175.3124 15.33074383 79766
GEOSCAN 4 (RS92S4)      
1 64892U 25155S   26161.27459088  .00014013  00000+0  43847-3 0  9993
2 64892  97.4541 130.6618 0005790 185.2068 174.9115 15.33224705 79766
