OBJECT_NAME,OBJECT_ID,EPOCH,MEAN_MOTION,ECCENTRICITY,INCLINATION,RA_OF_ASC_NODE,ARG_OF_PERICENTER,MEAN_ANOMALY,EPHEMERIS_TYPE,CLASSIFICATION_TYPE,NORAD_CAT_ID,ELEMENT_SET_NO,REV_AT_EPOCH,BSTAR,MEAN_MOTION_DOT,MEAN_MOTION_DDOT
KUZGTU 1 (RS47S),2023-091AV,2026-06-10T07:07:23.908800,15.29703195,.00123639,97.5070,225.7071,119.1834,241.0644,0,U,57217,999,16332,.40033997E-3,.11474E-3,0
SONATE-2,2024-043Q,2026-06-10T04:53:32.920800,15.58196614,.00067068,97.5521,311.1751,219.2622,140.8148,0,U,59112,999,12680,.52311096E-3,.39531E-3,0
MESAT1,2024-125G,2026-06-09T13:12:58.122144,15.62376813,.00088272,97.2317,17.8634,233.2238,126.8211,0,U,60209,999,10837,.53240908E-3,.47271E-3,0
OOV-CUBE (TUBSAT-30),2024-128F,2026-06-09T14:28:22.072800,15.02742005,.00455733,61.9950,252.0179,132.0593,228.4390,0,U,60240,999,10497,.17320396E-3,.2162E-4,0
COLIBRI-S (RS67S),2024-199M,2026-06-10T06:32:33.399456,15.47438509,.00064032,97.3009,35.0653,312.1246,47.9460,0,U,61746,999,13634,.3982682E-3,.20361E-3,0
HORS 3 (RS81S),2024-199U,2026-06-10T06:24:40.271328,15.54495064,.00040572,97.2992,36.9725,320.0931,40.0025,0,U,61753,999,13648,.53101204E-3,.34961E-3,0
HORS 4 (RS82S),2024-199V,2026-06-10T05:57:28.160640,15.59034953,.00031078,97.2941,38.1106,306.6291,53.4679,0,U,61754,999,13656,.59490184E-3,.46417E-3,0
ARCTICSAT 1 (RS74S),2024-199AD,2026-06-09T12:41:13.375392,16.10882981,.00083678,97.2858,44.2155,205.6667,154.4203,0,U,61762,999,13689,.10026221E-2,.98102E-2,.5785623E-3
SIT-2086,2024-199AF,2026-06-10T07:14:02.646528,15.52610624,.000439,97.2950,37.5080,290.0530,70.0251,0,U,61764,999,13336,.55495188E-3,.34132E-3,0
HYPERVIEW 1G (RS66S),2024-199AP,2026-06-09T12:01:48.608256,15.73836516,.00022362,97.2889,39.8433,269.4785,90.6223,0,U,61772,999,13346,.5027216E-3,.71217E-3,0
ALTAIR (RS65S),2024-199AW,2026-06-10T06:37:19.450848,15.36893506,.00118004,97.3046,30.6730,338.8628,21.2128,0,U,61779,999,13605,.30066974E-3,.10791E-3,0
ASRTU-1 (AO-123),2024-199AY,2026-06-10T06:11:14.736480,15.35576143,.00130071,97.3016,29.9914,341.2305,18.8458,0,U,61781,999,13286,.20934814E-3,.7178E-4,0
SAMSAT-IONOSPHERE (RS75S),2024-199BB,2026-06-10T05:57:41.421312,15.57021542,.0006178,97.2963,36.9753,313.2233,46.8506,0,U,61784,999,13648,.58815073E-3,.42564E-3,0
RTU MIREA 1 (RS51S),2024-199BC,2026-06-10T06:54:33.045408,15.60338499,.00056291,97.2951,37.8127,305.6839,54.3894,0,U,61785,999,13339,.62527582E-3,.5132E-3,0
TEVEL2-4,2025-052D,2026-06-09T16:23:28.766976,15.34347478,.00045286,97.3918,57.0647,116.3023,243.8685,0,U,63213,999,6896,.51593665E-3,.17103E-3,0
TEVEL2-5,2025-052E,2026-06-09T23:07:29.112096,15.34187821,.00044879,97.3912,57.2938,118.3870,241.7826,0,U,63214,999,6900,.53583397E-3,.17677E-3,0
TEVEL2-6,2025-052F,2026-06-09T15:35:22.725312,15.34139307,.00044687,97.3916,56.9640,119.1540,241.0151,0,U,63215,999,6895,.52507906E-3,.17293E-3,0
TEVEL2-1,2025-052H,2026-06-09T16:13:26.467392,15.33616916,.00042963,97.3891,56.6234,127.2307,232.9328,0,U,63217,999,6894,.50303307E-3,.1629E-3,0
TEVEL2-3,2025-052J,2026-06-09T06:42:23.209056,15.33659205,.00044119,97.3888,56.2474,129.8518,230.3113,0,U,63218,999,6888,.49846388E-3,.16163E-3,0
TEVEL2-2,2025-052K,2026-06-09T16:13:57.105696,15.33624992,.00043077,97.3888,56.6264,129.1592,231.0034,0,U,63219,999,6894,.5000904E-3,.16199E-3,0
TEVEL2-9,2025-052AD,2026-06-09T15:27:32.343840,15.31666357,.0007074,97.3951,55.9854,151.9311,208.2313,0,U,63237,999,6887,.49533067E-3,.15092E-3,0
TEVEL2-7,2025-052AE,2026-06-09T22:40:45.263712,15.31386774,.0007199,97.3953,56.2048,151.6459,208.5176,0,U,63238,999,6891,.50061571E-3,.15122E-3,0
TEVEL2-8,2025-052AF,2026-06-09T16:36:09.084384,15.31361975,.00071697,97.3952,55.9294,153.0566,207.1049,0,U,63239,999,6887,.467774E-3,.14112E-3,0
INNOSAT 16 (RS92S7),2025-155C,2026-06-10T05:53:28.306464,15.25383494,.00097067,97.4555,128.3957,200.3369,159.7484,0,U,64878,999,7961,.21103664E-3,.526E-4,0
GEOSCAN 6 (RS92S6),2025-155D,2026-06-10T05:59:08.351808,15.30021941,.00074169,97.4548,129.7750,185.8211,174.2945,0,U,64879,999,7970,.33233234E-3,.959E-4,0
GEOSCAN 1 (RS92S1),2025-155E,2026-06-10T06:06:30.942720,15.30606205,.00073561,97.4545,129.9221,185.4226,174.6936,0,U,64880,999,7971,.34279141E-3,.10076E-3,0
239ALFEROV (RS61S),2025-155F,2026-06-10T07:10:56.216064,15.32755886,.0007048,97.4545,130.5054,181.6160,178.5061,0,U,64881,999,7975,.41879811E-3,.13187E-3,0
GEOSCAN 2 (RS92S2),2025-155Q,2026-06-10T05:59:11.300640,15.30878303,.00071995,97.4544,130.0666,171.1518,188.9852,0,U,64890,999,7972,.3425714E-3,.10154E-3,0
GEOSCAN 5 (RS92S5),2025-155R,2026-06-10T06:57:11.383776,15.33074383,.00057277,97.4537,130.6307,184.8064,175.3124,0,U,64891,999,7976,.41735663E-3,.1327E-3,0
GEOSCAN 4 (RS92S4),2025-155S,2026-06-10T06:35:24.652032,15.33224705,.00057905,97.4541,130.6618,185.2068,174.9115,0,U,64892,999,7976,.43847128E-3,.14013E-3,0
